{
  "type": "FeatureCollection",
  "features": [
    {
      "type": "Feature",
      "properties": {
        "norad_id": 66555,
        "name": "ELECTRON KICK STAGE R/B",
        "group": "last-30-days",
        "lat": -41.75296197987957,
        "lon": -25.416368617752454,
        "alt_km": 473.905195190051,
        "timestamp": "2025-12-12T16:50:31.910806+00:00",
        "meta_object_name": "ELECTRON KICK STAGE R/B",
        "meta_object_id": "2025-267B",
        "meta_epoch": "2025-12-12T06:15:44.318304",
        "meta_mean_motion": 15.32775527,
        "meta_eccentricity": 0.00065674,
        "meta_inclination": 42.0197,
        "meta_ra_of_asc_node": 59.6038,
        "meta_arg_of_pericenter": 48.8841,
        "meta_mean_anomaly": 311.2563,
        "meta_ephemeris_type": 0,
        "meta_classification_type": "U",
        "meta_norad_cat_id": 66555,
        "meta_element_set_no": 999,
        "meta_rev_at_epoch": 333,
        "meta_bstar": 0.0010907827,
        "meta_mean_motion_dot": 0.00035216,
        "meta_mean_motion_ddot": 0,
        "tle_line1": "1 66555U 25267B   25346.26092961  .00035216  00000+0  10908-2 0  9990",
        "tle_line2": "2 66555  42.0197  59.6038 0006567  48.8841 311.2563 15.32775527  3334"
      },
      "geometry": {
        "type": "Point",
        "coordinates": [
          -25.416368617752454,
          -41.75296197987957
        ]
      }
    },
    {
      "type": "Feature",
      "properties": {
        "norad_id": 66557,
        "name": "STARLINK-35699",
        "group": "last-30-days",
        "lat": -38.67134697708896,
        "lon": 0.6083656945199405,
        "alt_km": 417.4324832064476,
        "timestamp": "2025-12-12T16:50:31.910819+00:00",
        "meta_object_name": "STARLINK-35699",
        "meta_object_id": "2025-268A",
        "meta_epoch": "2025-12-12T06:00:00.999648",
        "meta_mean_motion": 15.50515246,
        "meta_eccentricity": 0.00015041,
        "meta_inclination": 42.9999,
        "meta_ra_of_asc_node": 124.0616,
        "meta_arg_of_pericenter": 265.6694,
        "meta_mean_anomaly": 336.1149,
        "meta_ephemeris_type": 0,
        "meta_classification_type": "U",
        "meta_norad_cat_id": 66557,
        "meta_element_set_no": 999,
        "meta_rev_at_epoch": 458,
        "meta_bstar": 0.0001733561,
        "meta_mean_motion_dot": 9.818e-05,
        "meta_mean_motion_ddot": 0,
        "tle_line1": "1 66557U 25268A   25346.25001157  .00009818  00000+0  17336-3 0  9991",
        "tle_line2": "2 66557  42.9999 124.0616 0001504 265.6694 336.1149 15.50515246  4589"
      },
      "geometry": {
        "type": "Point",
        "coordinates": [
          0.6083656945199405,
          -38.67134697708896
        ]
      }
    },
    {
      "type": "Feature",
      "properties": {
        "norad_id": 66558,
        "name": "STARLINK-35695",
        "group": "last-30-days",
        "lat": -39.30645527872783,
        "lon": 2.8839622699087752,
        "alt_km": 416.2023824384305,
        "timestamp": "2025-12-12T16:50:31.910829+00:00",
        "meta_object_name": "STARLINK-35695",
        "meta_object_id": "2025-268B",
        "meta_epoch": "2025-12-12T06:00:00.999648",
        "meta_mean_motion": 15.50629983,
        "meta_eccentricity": 0.00033455,
        "meta_inclination": 43,
        "meta_ra_of_asc_node": 124.0586,
        "meta_arg_of_pericenter": 263.4091,
        "meta_mean_anomaly": 340.1623,
        "meta_ephemeris_type": 0,
        "meta_classification_type": "U",
        "meta_norad_cat_id": 66558,
        "meta_element_set_no": 999,
        "meta_rev_at_epoch": 458,
        "meta_bstar": -0.0017781995,
        "meta_mean_motion_dot": -0.00103507,
        "meta_mean_motion_ddot": 0,
        "tle_line1": "1 66558U 25268B   25346.25001157 -.00103507  00000+0 -17782-2 0  9998",
        "tle_line2": "2 66558  43.0000 124.0586 0003345 263.4091 340.1623 15.50629983  4589"
      },
      "geometry": {
        "type": "Point",
        "coordinates": [
          2.8839622699087752,
          -39.30645527872783
        ]
      }
    },
    {
      "type": "Feature",
      "properties": {
        "norad_id": 66559,
        "name": "STARLINK-35419",
        "group": "last-30-days",
        "lat": -39.87995610927201,
        "lon": 5.130977910836989,
        "alt_km": 416.4556330564883,
        "timestamp": "2025-12-12T16:50:31.910839+00:00",
        "meta_object_name": "STARLINK-35419",
        "meta_object_id": "2025-268C",
        "meta_epoch": "2025-12-12T06:00:00.999648",
        "meta_mean_motion": 15.50460028,
        "meta_eccentricity": 0.00027795,
        "meta_inclination": 43,
        "meta_ra_of_asc_node": 124.0534,
        "meta_arg_of_pericenter": 247.1836,
        "meta_mean_anomaly": 358.3259,
        "meta_ephemeris_type": 0,
        "meta_classification_type": "U",
        "meta_norad_cat_id": 66559,
        "meta_element_set_no": 999,
        "meta_rev_at_epoch": 458,
        "meta_bstar": 0.0018702848,
        "meta_mean_motion_dot": 0.00110478,
        "meta_mean_motion_ddot": 0,
        "tle_line1": "1 66559U 25268C   25346.25001157  .00110478  00000+0  18703-2 0  9996",
        "tle_line2": "2 66559  43.0000 124.0534 0002779 247.1836 358.3259 15.50460028  4588"
      },
      "geometry": {
        "type": "Point",
        "coordinates": [
          5.130977910836989,
          -39.87995610927201
        ]
      }
    },
    {
      "type": "Feature",
      "properties": {
        "norad_id": 66560,
        "name": "STARLINK-35411",
        "group": "last-30-days",
        "lat": -40.44399440576457,
        "lon": 7.57354691726747,
        "alt_km": 416.91395411237863,
        "timestamp": "2025-12-12T16:50:31.910851+00:00",
        "meta_object_name": "STARLINK-35411",
        "meta_object_id": "2025-268D",
        "meta_epoch": "2025-12-12T06:00:00.999648",
        "meta_mean_motion": 15.50587704,
        "meta_eccentricity": 0.00020275,
        "meta_inclination": 43,
        "meta_ra_of_asc_node": 124.0489,
        "meta_arg_of_pericenter": 268.8908,
        "meta_mean_anomaly": 338.437,
        "meta_ephemeris_type": 0,
        "meta_classification_type": "U",
        "meta_norad_cat_id": 66560,
        "meta_element_set_no": 999,
        "meta_rev_at_epoch": 458,
        "meta_bstar": 0.00042228291,
        "meta_mean_motion_dot": 0.00024517,
        "meta_mean_motion_ddot": 0,
        "tle_line1": "1 66560U 25268D   25346.25001157  .00024517  00000+0  42228-3 0  9996",
        "tle_line2": "2 66560  43.0000 124.0489 0002027 268.8908 338.4370 15.50587704  4589"
      },
      "geometry": {
        "type": "Point",
        "coordinates": [
          7.57354691726747,
          -40.44399440576457
        ]
      }
    },
    {
      "type": "Feature",
      "properties": {
        "norad_id": 66561,
        "name": "STARLINK-35305",
        "group": "last-30-days",
        "lat": -41.40247258232879,
        "lon": 12.512678152928542,
        "alt_km": 417.39576445293005,
        "timestamp": "2025-12-12T16:50:31.910862+00:00",
        "meta_object_name": "STARLINK-35305",
        "meta_object_id": "2025-268E",
        "meta_epoch": "2025-12-12T06:00:00.999648",
        "meta_mean_motion": 15.5052768,
        "meta_eccentricity": 0.00014327,
        "meta_inclination": 43,
        "meta_ra_of_asc_node": 124.039,
        "meta_arg_of_pericenter": 268.1561,
        "meta_mean_anomaly": 343.1052,
        "meta_ephemeris_type": 0,
        "meta_classification_type": "U",
        "meta_norad_cat_id": 66561,
        "meta_element_set_no": 999,
        "meta_rev_at_epoch": 454,
        "meta_bstar": 0.0010326814,
        "meta_mean_motion_dot": 0.000606,
        "meta_mean_motion_ddot": 0,
        "tle_line1": "1 66561U 25268E   25346.25001157  .00060600  00000+0  10327-2 0  9994",
        "tle_line2": "2 66561  43.0000 124.0390 0001432 268.1561 343.1052 15.50527680  4541"
      },
      "geometry": {
        "type": "Point",
        "coordinates": [
          12.512678152928542,
          -41.40247258232879
        ]
      }
    },
    {
      "type": "Feature",
      "properties": {
        "norad_id": 66562,
        "name": "STARLINK-35579",
        "group": "last-30-days",
        "lat": -40.95412737109545,
        "lon": 10.045982553740016,
        "alt_km": 417.3110035440541,
        "timestamp": "2025-12-12T16:50:31.910872+00:00",
        "meta_object_name": "STARLINK-35579",
        "meta_object_id": "2025-268F",
        "meta_epoch": "2025-12-12T06:00:00.999648",
        "meta_mean_motion": 15.5052748,
        "meta_eccentricity": 0.0001536,
        "meta_inclination": 43.0003,
        "meta_ra_of_asc_node": 124.0433,
        "meta_arg_of_pericenter": 270.4844,
        "meta_mean_anomaly": 338.8567,
        "meta_ephemeris_type": 0,
        "meta_classification_type": "U",
        "meta_norad_cat_id": 66562,
        "meta_element_set_no": 999,
        "meta_rev_at_epoch": 458,
        "meta_bstar": 0.0011745339,
        "meta_mean_motion_dot": 0.00069046,
        "meta_mean_motion_ddot": 0,
        "tle_line1": "1 66562U 25268F   25346.25001157  .00069046  00000+0  11745-2 0  9993",
        "tle_line2": "2 66562  43.0003 124.0433 0001536 270.4844 338.8567 15.50527480  4582"
      },
      "geometry": {
        "type": "Point",
        "coordinates": [
          10.045982553740016,
          -40.95412737109545
        ]
      }
    }
  ]
}